[
    {
        "Altitude(m)": 607897.6120862754,
        "Argument of Periapsis(deg)": 0.0,
        "Eccentricity": 0.0,
        "Inclination(deg)": 60.0,
        "Latitude(deg)": -14.292920148769456,
        "Longitude(deg)": 146.61873706304982,
        "Mean Anomaly(deg)": -16.363599999999984,
        "RAAN(deg)": 255.0,
        "Satellite Name": "Test1 1143",
        "Satellite Number": 1143,
        "Semi-Major Axis(m)": 6980739.136638005,
        "Time(s)": 0
    },
    {
        "Altitude(m)": 607750.8135212675,
        "Argument of Periapsis(deg)": 0.00010418945913296404,
        "Eccentricity": 0.0,
        "Inclination(deg)": 60.0,
        "Latitude(deg)": -13.758761907468278,
        "Longitude(deg)": 146.9058066741705,
        "Mean Anomaly(deg)": -15.743493854538132,
        "RAAN(deg)": 254.99957995086027,
        "Satellite Name": "Test1 1143",
        "Satellite Number": 1143,
        "Semi-Major Axis(m)": 6980739.136638005,
        "Time(s)": 10
    },
    {
        "Altitude(m)": 607606.5392367456,
        "Argument of Periapsis(deg)": 0.0002083789182659281,
        "Eccentricity": 0.0,
        "Inclination(deg)": 60.0,
        "Latitude(deg)": -13.224128917647464,
        "Longitude(deg)": 147.19139988472097,
        "Mean Anomaly(deg)": -15.123387709076383,
        "RAAN(deg)": 254.9991599017205,
        "Satellite Name": "Test1 1143",
        "Satellite Number": 1143,
        "Semi-Major Axis(m)": 6980739.136638005,
        "Time(s)": 20
    },
    {
        "Altitude(m)": 607464.8336047828,
        "Argument of Periapsis(deg)": 0.00031256837739889213,
        "Eccentricity": 0.0,
        "Inclination(deg)": 60.0,
        "Latitude(deg)": -12.689041483883516,
        "Longitude(deg)": 147.47558137406864,
        "Mean Anomaly(deg)": -14.503281563614477,
        "RAAN(deg)": 254.9987398525808,
        "Satellite Name": "Test1 1143",
        "Satellite Number": 1143,
        "Semi-Major Axis(m)": 6980739.136638005,
        "Time(s)": 30
    },
    {
        "Altitude(m)": 607325.7397203675,
        "Argument of Periapsis(deg)": 0.0004167578365318562,
        "Eccentricity": 0.0,
        "Inclination(deg)": 60.0,
        "Latitude(deg)": -12.153519638207822,
        "Longitude(deg)": 147.75841547893086,
        "Mean Anomaly(deg)": -13.883175418152726,
        "RAAN(deg)": 254.99831980344106,
        "Satellite Name": "Test1 1143",
        "Satellite Number": 1143,
        "Semi-Major Axis(m)": 6980739.136638005,
        "Time(s)": 40
    },
    {
        "Altitude(m)": 607189.2993830872,
        "Argument of Periapsis(deg)": 0.0005209472956648203,
        "Eccentricity": 0.0,
        "Inclination(deg)": 60.0,
        "Latitude(deg)": -11.61758315404572,
        "Longitude(deg)": 148.03996522490957,
        "Mean Anomaly(deg)": -13.263069272690874,
        "RAAN(deg)": 254.9978997543013,
        "Satellite Name": "Test1 1143",
        "Satellite Number": 1143,
        "Semi-Major Axis(m)": 6980739.136638005,
        "Time(s)": 50
    },
    {
        "Altitude(m)": 607055.553079434,
        "Argument of Periapsis(deg)": 0.0006251367547977843,
        "Eccentricity": 0.0,
        "Inclination(deg)": 60.0,
        "Latitude(deg)": -11.081251559804093,
        "Longitude(deg)": 148.32029287022075,
        "Mean Anomaly(deg)": -12.642963127229121,
        "RAAN(deg)": 254.99747970516154,
        "Satellite Name": "Test1 1143",
        "Satellite Number": 1143,
        "Semi-Major Axis(m)": 6980739.136638005,
        "Time(s)": 60
    },
    {
        "Altitude(m)": 606924.5399657417,
        "Argument of Periapsis(deg)": 0.0007293262139307483,
        "Eccentricity": 0.0,
        "Inclination(deg)": 60.0,
        "Latitude(deg)": -10.54454415212087,
        "Longitude(deg)": 148.59946044877796,
        "Mean Anomaly(deg)": -12.02285698176722,
        "RAAN(deg)": 254.99705965602183,
        "Satellite Name": "Test1 1143",
        "Satellite Number": 1143,
        "Semi-Major Axis(m)": 6980739.136638005,
        "Time(s)": 70
    },
    {
        "Altitude(m)": 606796.2978518171,
        "Argument of Periapsis(deg)": 0.0008335156730637124,
        "Eccentricity": 0.0,
        "Inclination(deg)": 60.0,
        "Latitude(deg)": -10.007480008795834,
        "Longitude(deg)": 148.87752879978333,
        "Mean Anomaly(deg)": -11.402750836305467,
        "RAAN(deg)": 254.9966396068821,
        "Satellite Name": "Test1 1143",
        "Satellite Number": 1143,
        "Semi-Major Axis(m)": 6980739.136638005,
        "Time(s)": 80
    },
    {
        "Altitude(m)": 606670.8631851291,
        "Argument of Periapsis(deg)": 0.0009377051321966765,
        "Eccentricity": 0.0,
        "Inclination(deg)": 60.0,
        "Latitude(deg)": -9.470078001421617,
        "Longitude(deg)": 149.15455810960236,
        "Mean Anomaly(deg)": -10.782644690843615,
        "RAAN(deg)": 254.99621955774234,
        "Satellite Name": "Test1 1143",
        "Satellite Number": 1143,
        "Semi-Major Axis(m)": 6980739.136638005,
        "Time(s)": 90
    },
    {
        "Altitude(m)": 606548.2710357745,
        "Argument of Periapsis(deg)": 0.0010418945913296407,
        "Eccentricity": 0.0,
        "Inclination(deg)": 60.0,
        "Latitude(deg)": -8.932356807733775,
        "Longitude(deg)": 149.43060845307832,
        "Mean Anomaly(deg)": -10.16253854538176,
        "RAAN(deg)": 254.99579950860257,
        "Satellite Name": "Test1 1143",
        "Satellite Number": 1143,
        "Semi-Major Axis(m)": 6980739.136638005,
        "Time(s)": 100
    },
    {
        "Altitude(m)": 606428.5550820325,
        "Argument of Periapsis(deg)": 0.0011460840504626045,
        "Eccentricity": 0.0,
        "Inclination(deg)": 60.0,
        "Latitude(deg)": -8.394334923691694,
        "Longitude(deg)": 149.70573882144186,
        "Mean Anomaly(deg)": -9.542432399919958,
        "RAAN(deg)": 254.99537945946287,
        "Satellite Name": "Test1 1143",
        "Satellite Number": 1143,
        "Semi-Major Axis(m)": 6980739.136638005,
        "Time(s)": 110
    },
    {
        "Altitude(m)": 606311.7475966469,
        "Argument of Periapsis(deg)": 0.0012502735095955685,
        "Eccentricity": 0.0,
        "Inclination(deg)": 60.0,
        "Latitude(deg)": -7.856030675313058,
        "Longitude(deg)": 149.9800076625928,
        "Mean Anomaly(deg)": -8.922326254458106,
        "RAAN(deg)": 254.99495941032313,
        "Satellite Name": "Test1 1143",
        "Satellite Number": 1143,
        "Semi-Major Axis(m)": 6980739.136638005,
        "Time(s)": 120
    },
    {
        "Altitude(m)": 606197.8794337612,
        "Argument of Periapsis(deg)": 0.0013544629687285324,
        "Eccentricity": 0.0,
        "Inclination(deg)": 60.0,
        "Latitude(deg)": -7.317462230275812,
        "Longitude(deg)": 150.25347342090865,
        "Mean Anomaly(deg)": -8.302220108996252,
        "RAAN(deg)": 254.99453936118337,
        "Satellite Name": "Test1 1143",
        "Satellite Number": 1143,
        "Semi-Major Axis(m)": 6980739.136638005,
        "Time(s)": 130
    },
    {
        "Altitude(m)": 606086.9800165712,
        "Argument of Periapsis(deg)": 0.0014586524278614966,
        "Eccentricity": 0.0,
        "Inclination(deg)": 60.0,
        "Latitude(deg)": -6.778647609300669,
        "Longitude(deg)": 150.52619356373708,
        "Mean Anomaly(deg)": -7.6821139635344,
        "RAAN(deg)": 254.9941193120436,
        "Satellite Name": "Test1 1143",
        "Satellite Number": 1143,
        "Semi-Major Axis(m)": 6980739.136638005,
        "Time(s)": 140
    },
    {
        "Altitude(m)": 605979.0773256932,
        "Argument of Periapsis(deg)": 0.0015628418869944607,
        "Eccentricity": 0.0,
        "Inclination(deg)": 60.0,
        "Latitude(deg)": -6.23960469733471,
        "Longitude(deg)": 150.798225120348,
        "Mean Anomaly(deg)": -7.062007818072598,
        "RAAN(deg)": 254.9936992629039,
        "Satellite Name": "Test1 1143",
        "Satellite Number": 1143,
        "Semi-Major Axis(m)": 6980739.136638005,
        "Time(s)": 150
    },
    {
        "Altitude(m)": 605874.1978881928,
        "Argument of Periapsis(deg)": 0.0016670313461274247,
        "Eccentricity": 0.0,
        "Inclination(deg)": 60.0,
        "Latitude(deg)": -5.700351254548876,
        "Longitude(deg)": 151.0696252205007,
        "Mean Anomaly(deg)": -6.4419016726107445,
        "RAAN(deg)": 254.99327921376417,
        "Satellite Name": "Test1 1143",
        "Satellite Number": 1143,
        "Semi-Major Axis(m)": 6980739.136638005,
        "Time(s)": 160
    },
    {
        "Altitude(m)": 605772.3667673573,
        "Argument of Periapsis(deg)": 0.0017712208052603888,
        "Eccentricity": 0.0,
        "Inclination(deg)": 60.0,
        "Latitude(deg)": -5.160904927162513,
        "Longitude(deg)": 151.3404501197832,
        "Mean Anomaly(deg)": -5.821795527148891,
        "RAAN(deg)": 254.9928591646244,
        "Satellite Name": "Test1 1143",
        "Satellite Number": 1143,
        "Semi-Major Axis(m)": 6980739.136638005,
        "Time(s)": 170
    },
    {
        "Altitude(m)": 605673.6075532048,
        "Argument of Periapsis(deg)": 0.001875410264393353,
        "Eccentricity": 0.0,
        "Inclination(deg)": 60.0,
        "Latitude(deg)": -4.621283258113494,
        "Longitude(deg)": 151.61075573749784,
        "Mean Anomaly(deg)": -5.201689381687038,
        "RAAN(deg)": 254.99243911548464,
        "Satellite Name": "Test1 1143",
        "Satellite Number": 1143,
        "Semi-Major Axis(m)": 6980739.136638005,
        "Time(s)": 180
    },
    {
        "Altitude(m)": 605577.9423536733,
        "Argument of Periapsis(deg)": 0.0019795997235263173,
        "Eccentricity": 0.0,
        "Inclination(deg)": 60.0,
        "Latitude(deg)": -4.081503697586875,
        "Longitude(deg)": 151.88059819425095,
        "Mean Anomaly(deg)": -4.581583236225236,
        "RAAN(deg)": 254.99201906634494,
        "Satellite Name": "Test1 1143",
        "Satellite Number": 1143,
        "Semi-Major Axis(m)": 6980739.136638005,
        "Time(s)": 190
    }
]